OBJECT_NAME,OBJECT_ID,EPOCH,MEAN_MOTION,ECCENTRICITY,INCLINATION,RA_OF_ASC_NODE,ARG_OF_PERICENTER,MEAN_ANOMALY,EPHEMERIS_TYPE,CLASSIFICATION_TYPE,NORAD_CAT_ID,ELEMENT_SET_NO,REV_AT_EPOCH,BSTAR,MEAN_MOTION_DOT,MEAN_MOTION_DDOT
SL-12 R/B(2),1985-042D,2026-06-18T15:35:10.739904,14.22006246,.00364,71.1076,234.4271,325.5367,146.9046,0,U,15772,999,12874,.42067E-4,.46E-6,0
SL-14 R/B,1985-069B,2026-06-18T18:49:59.147040,14.86516596,.0017906,82.5272,289.8633,213.5666,146.4417,0,U,15945,999,18785,.37698E-4,.359E-5,0
SL-16 R/B,1985-097B,2026-06-18T18:13:35.848416,14.16610073,.0005387,71.0033,287.7676,107.9095,359.0728,0,U,16182,999,10154,.19699E-4,-.9E-7,0
SL-14 R/B,1986-006B,2026-06-18T17:36:47.112768,14.86946958,.0074879,82.5261,164.6577,298.2551,61.1121,0,U,16496,999,16422,.44636E-4,.445E-5,0
COSMOS 1743,1986-034A,2026-06-18T10:10:28.118784,15.67035980,.0003996,82.5283,327.4165,265.3192,94.7612,0,U,16719,999,19598,.35406E-3,.37795E-3,0
SL-14 R/B,1986-046B,2026-06-18T18:27:49.052736,14.85671961,.0021628,82.4817,344.6802,252.8410,107.0439,0,U,16792,999,14141,.34615E-4,.325E-5,0
SL-14 R/B,1986-055B,2026-06-18T16:40:42.651840,14.85724006,.0018918,82.5203,31.7154,2.7645,62.4191,0,U,16882,999,13436,.32015E-4,.303E-5,0
AJISAI (EGS),1986-061A,2026-06-18T21:25:38.480736,12.44516779,.0011203,50.0067,142.1499,184.9029,202.3384,0,U,16908,999,48060,-.82602E-4,-.109E-5,0
SL-14 R/B,1987-024B,2026-06-18T15:09:08.722944,14.86213983,.0016754,82.5279,357.8930,288.0387,71.9004,0,U,17567,999,10312,.30027E-4,.288E-5,0
COSMOS 1833,1987-027A,2026-06-18T14:16:37.718400,14.13051120,.0022845,70.9182,113.9091,52.7685,307.5516,0,U,17589,999,2457,.2027E-3,.331E-5,0
SL-16 R/B,1987-027B,2026-06-18T18:27:19.147968,14.17171415,.0006571,71.0032,63.4956,310.4008,49.6542,0,U,17590,999,2966,-.62381E-4,-.174E-5,0
SL-14 R/B,1987-038B,2026-06-18T19:30:39.025152,14.85445925,.0019043,82.5007,201.5410,185.7566,174.3435,0,U,17912,999,9424,.26505E-4,.253E-5,0
COSMOS 1844,1987-041A,2026-06-18T17:36:17.775648,14.14567575,.0032816,70.8966,181.0453,233.3190,126.4915,0,U,17973,999,1787,-.44913E-4,-.135E-5,0
SL-14 R/B,1987-055B,2026-06-18T16:54:54.244800,14.85711972,.0021597,82.4995,253.7985,42.9023,317.3873,0,U,18153,999,8493,.33363E-4,.315E-5,0
COSMOS 1867,1987-060A,2026-06-18T21:06:50.395680,14.31515871,.0016563,65.0115,23.3185,282.1387,77.7841,0,U,18187,999,3442,.17877E-4,-.53E-6,0
SL-14 R/B,1988-001B,2026-06-18T18:34:56.049312,14.85610528,.0016433,82.5133,100.2806,263.7969,96.1375,0,U,18749,999,5703,.33858E-4,.318E-5,0
COSMOS 1933,1988-020A,2026-06-18T16:25:57.781056,15.18721837,.0003735,82.5123,150.9523,180.1997,179.9236,0,U,18958,999,6555,.15543E-3,.3256E-4,0
SL-3 R/B,1988-032B,2026-06-18T21:18:42.844896,15.20850091,.0023919,97.5257,152.9270,238.6714,121.2180,0,U,19046,999,6748,.14301E-3,.3108E-4,0
SL-16 R/B,1988-039B,2026-06-18T19:29:12.547392,14.19629811,.002215,71.0135,214.7226,190.7575,169.3079,0,U,19120,999,97273,.65123E-4,.9E-6,0
COSMOS 1953,1988-050A,2026-06-18T17:15:38.976768,15.29996184,.0012233,82.5074,56.4896,121.6246,238.6190,0,U,19210,999,5322,.20096E-3,.5879E-4,0
SL-8 R/B,1988-053B,2026-06-18T18:14:57.080832,14.38967939,.0019167,74.0482,286.1573,80.9098,66.9107,0,U,19257,999,99113,.54763E-4,.143E-5,0
COSMOS 1975,1988-093A,2026-06-18T20:31:57.046368,15.29342449,.0011483,82.5188,16.0233,165.8726,194.2837,0,U,19573,999,3486,.2004E-3,.5745E-4,0
SL-14 R/B,1988-093B,2026-06-18T18:22:52.826016,14.85742897,.0022034,82.5313,307.1624,65.5797,57.1790,0,U,19574,999,1602,.37597E-4,.353E-5,0
SL-16 R/B,1988-102B,2026-06-18T18:30:23.973984,14.16164018,.0015694,71.0000,298.8059,223.1389,136.8506,0,U,19650,999,94120,-.13465E-4,-.75E-6,0
INTERCOSMOS 24,1989-080A,2026-06-18T16:25:30.273024,12.59664236,.1188357,82.6064,38.6710,58.4352,312.7285,0,U,20261,999,67951,.20532E-3,.727E-5,0
SL-14 R/B,1989-080C,2026-06-18T12:32:02.858784,12.50571369,.1228697,82.5934,108.4500,314.3461,36.3062,0,U,20262,999,67275,.67168E-4,.224E-5,0
DELTA 1 R/B,1989-089B,2026-06-18T19:20:09.278016,14.50732136,.0069387,97.0636,1.1049,161.8951,198.4742,0,U,20323,999,91039,.62017E-4,.216E-5,0
ARIANE 40 R/B,1990-005H,2026-06-18T18:45:56.198016,14.39928150,.0008838,98.2958,227.3484,258.9327,101.0868,0,U,20443,999,90735,.71862E-4,.184E-5,0
DELTA 2 R/B(1),1990-008B,2026-06-18T20:16:36.266016,15.69043930,.006489,35.5985,224.5676,130.2886,230.3549,0,U,20453,999,94196,.46569E-3,.63437E-3,0
COSMOS 2058,1990-010A,2026-06-18T18:57:30.530016,15.12024564,.0009002,82.4689,307.7740,354.3588,5.7539,0,U,20465,999,95751,.19088E-3,.3309E-4,0
SL-14 R/B,1990-010B,2026-06-18T17:15:26.271648,14.83647046,.0018966,82.5015,172.5062,331.0713,28.9448,0,U,20466,999,94346,.31211E-4,.282E-5,0
